[{"OBJECT_NAME":"STARLINK-5581","OBJECT_ID":"2023-013AU","EPOCH":"2026-03-09T09:34:16.326912","MEAN_MOTION":15.02526345,"ECCENTRICITY":0.00010596,"INCLINATION":43.0042,"RA_OF_ASC_NODE":315.0685,"ARG_OF_PERICENTER":243.296,"MEAN_ANOMALY":116.7774,"EPHEMERIS_TYPE":0,"CLASSIFICATION_TYPE":"U","NORAD_CAT_ID":55373,"ELEMENT_SET_NO":999,"REV_AT_EPOCH":17151,"BSTAR":0.00010227581,"MEAN_MOTION_DOT":1.178e-5,"MEAN_MOTION_DDOT":0},{"OBJECT_NAME":"CZ-6A R\/B","OBJECT_ID":"2023-168B","EPOCH":"2026-03-09T21:13:08.722272","MEAN_MOTION":15.16100791,"ECCENTRICITY":0.00607667,"INCLINATION":97.7542,"RA_OF_ASC_NODE":104.7688,"ARG_OF_PERICENTER":339.2379,"MEAN_ANOMALY":20.6386,"EPHEMERIS_TYPE":0,"CLASSIFICATION_TYPE":"U","NORAD_CAT_ID":58200,"ELEMENT_SET_NO":999,"REV_AT_EPOCH":12979,"BSTAR":0.00029693841,"MEAN_MOTION_DOT":5.919e-5,"MEAN_MOTION_DDOT":0}]
